NOAA 15                 
1 25338U 98030A   20241.91663984  .00000021  00000-0  27503-4 0  9990
2 25338  98.7138 266.5855 0011311  56.1555 304.0700 14.25987095159302
DMSP 5D-3 F15 (USA 147) 
1 25991U 99067A   20241.91389556 -.00000102  00000-0 -28425-4 0  9992
2 25991  98.9763 213.8581 0008821 254.7570 159.6969 14.16474024 70686
METEOSAT-8 (MSG-1)      
1 27509U 02040B   20241.20020292  .00000115  00000-0  00000-0 0  9992
2 27509   6.8472  53.7822 0001695  82.7716 313.9012  1.00278582 66005
DMSP 5D-3 F16 (USA 172) 
1 28054U 03048A   20241.92219562 -.00000102  00000-0 -30153-4 0  9990
2 28054  98.9182 220.7530 0008076  24.9528  29.0705 14.13647038870025
NOAA 18                 
1 28654U 05018A   20241.83910298  .00000048  00000-0  50790-4 0  9995
2 28654  99.0379 298.9225 0014639  31.3295 328.8746 14.12535189787130
METEOSAT-9 (MSG-2)      
1 28912U 05049B   20241.76957017 -.00000005  00000-0  00000-0 0  9997
2 28912   4.5745  69.8411 0001434  30.8398 157.3967  1.00265341 53795
FORMOSAT-3 FM6          
1 29047U 06011A   20241.66197791 -.00000011  00000-0  12125-4 0  9993
2 29047  71.9799 322.6105 0052169 296.5793  63.0002 14.28748091751636
FORMOSAT-3 FM1          
1 29048U 06011B   20241.68246646  .00000095  00000-0  53911-4 0  9999
2 29048  71.9645 233.3908 0045767 256.2144 103.3897 14.28713627754129
FORMOSAT-3 FM5          
1 29049U 06011C   20241.88948111  .00000062  00000-0  40658-4 0  9996
2 29049  72.0208  45.0270 0036644 280.9087  78.7927 14.28794444749940
FORMOSAT-3 FM3          
1 29050U 06011D   20241.89140677  .00000027  00000-0  16097-4 0  9991
2 29050  72.0161 183.7149 0050342 195.4354 164.5267 14.58940290766892
FORMOSAT-3 FM4          
1 29051U 06011E   20241.60802498  .00000036  00000-0  29791-4 0  9992
2 29051  72.0057 307.5203 0067527 161.6405 198.7193 14.28825729752493
FORMOSAT-3 FM2          
1 29052U 06011F   20241.81232018  .00000048  00000-0  35209-4 0  9995
2 29052  72.0360  21.5216 0041553 241.8163 117.8774 14.28931386750033
GOES 13                 
1 29155U 06018A   20241.79779326  .00000016  00000-0  00000-0 0  9993
2 29155   0.0708 165.5912 0008004  31.1038 129.1670  1.00273266 22126
METOP-A                 
1 29499U 06044A   20241.94867309 -.00000016  00000-0  11803-4 0  9997
2 29499  98.5165 286.2308 0001727  83.7691  41.7996 14.21488090719009
DMSP 5D-3 F17 (USA 191) 
1 29522U 06050A   20241.87308889 -.00000029  00000-0  79036-5 0  9993
2 29522  98.8004 257.1791 0009332 338.2603  21.8173 14.14014976712947
FENGYUN 3A              
1 32958U 08026A   20241.85795473  .00000004  00000-0  21489-4 0  9992
2 32958  98.4118 223.8646 0009664 122.6497 237.5613 14.18631729634986
FENGYUN 2E              
1 33463U 08066A   20241.92964795 -.00000224  00000-0  00000-0 0  9998
2 33463   4.4878  68.3179 0002601 296.9295  33.5929  1.00267965 42842
NOAA 19                 
1 33591U 09005A   20241.84806223  .00000024  00000-0  38426-4 0  9990
2 33591  99.1966 249.0814 0013188 230.4118 129.5888 14.12429043595359
GOES 14                 
1 35491U 09033A   20241.62015270 -.00000114  00000-0  00000-0 0  9996
2 35491   0.4233 271.8607 0012581 297.7068 246.4424  1.00273088 40877
METEOR-M 1              
1 35865U 09049A   20241.90968491  .00000017  00000-0  26619-4 0  9990
2 35865  98.4439 225.8888 0002320  11.3493 348.7737 14.22247382568075
DMSP 5D-3 F18 (USA 210) 
1 35951U 09057A   20241.96071281  .00000072  00000-0  60930-4 0  9998
2 35951  98.6496 229.4290 0011442 155.6559 204.5157 14.13295774333920
GOES 15                 
1 36411U 10008A   20241.67160428  .00000030  00000-0  00000-0 0  9990
2 36411   0.0513 117.7213 0003013 323.1458  10.5994  1.00260801 38424
COMS 1                  
1 36744U 10032A   20241.93793536 -.00000368  00000-0  00000-0 0  9992
2 36744   0.0244  98.0681 0000834  43.5139 301.7949  1.00269487 29841
FENGYUN 3B              
1 37214U 10059A   20241.84853859 -.00000013  00000-0  16641-4 0  9998
2 37214  99.0511 224.7198 0017979  63.1000 297.2010 14.15955545507928
SUOMI NPP               
1 37849U 11061A   20241.86175468 -.00000004  00000-0  19057-4 0  9995
2 37849  98.7386 178.8227 0001510  73.8751 352.3930 14.19542528457908
FENGYUN 2F              
1 38049U 12002A   20241.95037671 -.00000381  00000-0  00000-0 0  9999
2 38049   2.2262  83.3478 0000690  77.7415 270.9229  1.00269652 31645
METEOSAT-10 (MSG-3)     
1 38552U 12035B   20241.79645927  .00000041  00000-0  00000-0 0  9997
2 38552   1.3471 344.2729 0001920 137.3541 152.0211  1.00275037 29646
METOP-B                 
1 38771U 12049A   20241.92258838 -.00000023  00000-0  93307-5 0  9999
2 38771  98.6857 300.1024 0001913 125.0928 320.8728 14.21502937412328
FENGYUN 3C              
1 39260U 13052A   20241.85027882 -.00000033  00000-0  45247-5 0  9994
2 39260  98.5442 289.2955 0011248  14.2420 345.9070 14.15843948358790
METEOR-M 2              
1 40069U 14037A   20241.87403172 -.00000055  00000-0 -61285-5 0  9994
2 40069  98.4968 276.6521 0006840  74.8993 285.2937 14.20674399318498
HIMAWARI-8              
1 40267U 14060A   20241.87680545 -.00000298  00000-0  00000-0 0  9992
2 40267   0.0285 218.9235 0001143 294.5785 280.3325  1.00274348 21516
FENGYUN 2G              
1 40367U 14090A   20241.93217779 -.00000324  00000-0  00000-0 0  9998
2 40367   2.2521  93.6396 0002448 314.8512   3.8032  1.00282346 20792
METEOSAT-11 (MSG-4)     
1 40732U 15034A   20241.79625344 -.00000020  00000-0  00000-0 0  9991
2 40732   0.6725 271.5214 0003388 233.7513 119.4341  1.00279359 18790
ELEKTRO-L 2             
1 41105U 15074A   20241.90949646 -.00000139  00000-0  00000-0 0  9998
2 41105   1.3693  96.4414 0003065  84.1727 109.9408  1.00267215 17278
HIMAWARI-9              
1 41836U 16064A   20241.81841566 -.00000298  00000-0  00000-0 0  9997
2 41836   0.0114 163.3496 0001127 329.0211 280.5075  1.00271793 13945
GOES 16                 
1 41866U 16071A   20241.53848236 -.00000271  00000-0  00000-0 0  9999
2 41866   0.0338 113.9964 0000563  70.3886 271.4752  1.00272742 13861
FENGYUN 4A              
1 41882U 16077A   20241.96864509 -.00000354  00000-0  00000-0 0  9993
2 41882   0.1161  88.1358 0003933  41.7620 301.1020  1.00273499 13742
CYGFM05                 
1 41884U 16078A   20241.65965806  .00000261  00000-0  15507-4 0  9992
2 41884  34.9571 331.4199 0016314 328.6987  31.2752 15.14669647205066
CYGFM04                 
1 41885U 16078B   20241.67140738  .00000283  00000-0  16438-4 0  9992
2 41885  34.9502 324.1519 0014573 339.0884  20.9230 15.15182888205135
CYGFM02                 
1 41886U 16078C   20241.66426002  .00000260  00000-0  15281-4 0  9993
2 41886  34.9594 325.9780 0015347 335.1130  24.8840 15.15181732205123
CYGFM01                 
1 41887U 16078D   20241.63723690  .00000267  00000-0  15886-4 0  9992
2 41887  34.9539 332.8071 0016771 329.0956  30.8768 15.14482068205045
CYGFM08                 
1 41888U 16078E   20241.67508010  .00000266  00000-0  15663-4 0  9996
2 41888  34.9508 328.0517 0015859 336.4345  23.5639 15.14897997205085
CYGFM06                 
1 41889U 16078F   20241.57755934  .00000262  00000-0  15365-4 0  9990
2 41889  34.9589 325.2085 0014337 334.1616  25.8379 15.15175925205111
CYGFM07                 
1 41890U 16078G   20241.62189853  .00000286  00000-0  16626-4 0  9996
2 41890  34.9525 323.9924 0014051 337.7381  22.2719 15.15174246205126
CYGFM03                 
1 41891U 16078H   20241.61753031  .00000289  00000-0  16783-4 0  9998
2 41891  34.9559 324.2863 0013545 336.2854  23.7233 15.15169818205122
FENGYUN 3D              
1 43010U 17072A   20241.81584517 -.00000013  00000-0  14466-4 0  9993
2 43010  98.7532 180.3333 0000582 187.4565 172.6606 14.19747354144468
NOAA 20                 
1 43013U 17073A   20241.81324143 -.00000020  00000-0  11446-4 0  9997
2 43013  98.7199 178.6485 0001421  97.5108 262.6230 14.19560167143923
GOES 17                 
1 43226U 18022A   20241.74148022  .00000075  00000-0  00000-0 0  9999
2 43226   0.0637 289.0047 0000425 196.2164 341.9096  1.00271286  9171
FENGYUN 2H              
1 43491U 18050A   20241.92816493 -.00000151  00000-0  00000-0 0  9994
2 43491   0.4915 271.0617 0003043 236.7630 242.9960  1.00273552  8277
METOP-C                 
1 43689U 18087A   20241.80246794 -.00000027  00000-0  74070-5 0  9996
2 43689  98.6921 300.3223 0003123 122.6047 237.5433 14.21501301 93873
GEO-KOMPSAT-2A          
1 43823U 18100A   20241.74216212 -.00000367  00000-0  00000+0 0  9990
2 43823   0.0176 106.9246 0002214  12.2768 253.6527  1.00269988  6424
IOD-1 GEMS              
1 44385U 98067QK  20241.57599927  .00014969  00000-0  17206-3 0  9994
2 44385  51.6401 329.1852 0001374 262.7034  97.3804 15.62256348 65769
METEOR-M2 2             
1 44387U 19038A   20241.82586732 -.00000029  00000-0  61671-5 0  9995
2 44387  98.6258 200.4547 0002179  52.4586 307.6791 14.23680637 59835
